*******************************************************************************
Ephemeris / WWW_USER Tue Mar 27 22:42:43 2018 Pasadena, USA      / Horizons    
*******************************************************************************
Target body name: Chandra Observatory (spacecraft) (-151) {source: chandra}
Center body name: Earth-Moon Barycenter (3)       {source: chandra}
Center-site name: BODY CENTER
*******************************************************************************
Start time      : A.D. 2000-Jan-01 00:00:00.0000 TDB
Stop  time      : A.D. 2005-Jan-01 00:00:00.0000 TDB
Step-size       : 7200 minutes
*******************************************************************************
Center geodetic : 0.00000000,0.00000000,0.0000000 {E-lon(deg),Lat(deg),Alt(km)}
Center cylindric: 0.00000000,0.00000000,0.0000000 {E-lon(deg),Dxy(km),Dz(km)}
Center radii    : (undefined)                                                  
Output units    : AU-D                                                         
Output type     : GEOMETRIC cartesian states
Output format   : 2 (position and velocity)
Reference frame : ICRF/J2000.0                                                 
Coordinate systm: Ecliptic and Mean Equinox of Reference Epoch                 
*******************************************************************************
JDTDB
   X     Y     Z
   VX    VY    VZ
*******************************************************************************
$$SOE
2453014.500000000 = A.D. 2004-Jan-10 00:00:00.0000 TDB 
   2.707054559687469E-04 -3.981929330671272E-04  4.457214888992497E-05
   4.261381739166676E-05  9.257970173077815E-04 -1.196367112377589E-03
2453019.500000000 = A.D. 2004-Jan-15 00:00:00.0000 TDB 
   2.016399772680621E-04 -5.159624574360524E-04  3.556820170240707E-04
   3.844242099616858E-04  2.286575412952488E-04 -9.209841150446807E-04
2453024.500000000 = A.D. 2004-Jan-20 00:00:00.0000 TDB 
   4.447991396531649E-05 -5.044489377830800E-04  5.789597206579583E-04
   4.590392798299602E-04 -1.413238593929696E-04 -6.112550980189955E-04
2453029.500000000 = A.D. 2004-Jan-25 00:00:00.0000 TDB 
  -1.208027570995131E-04 -4.469267509145130E-04  7.135079186907698E-04
   4.558142082648670E-04 -3.817176974083625E-04 -3.118512026440414E-04
2453034.500000000 = A.D. 2004-Jan-30 00:00:00.0000 TDB 
  -2.389295467614730E-04 -3.450009235895403E-04  7.576672860860355E-04
   3.982531967600369E-04 -5.417097454994307E-04 -6.615618841452631E-06
2453039.500000000 = A.D. 2004-Feb-04 00:00:00.0000 TDB 
  -3.055034399219001E-04 -1.771560000862724E-04  7.085910265654999E-04
   2.755419463072932E-04 -6.427563264193358E-04  3.338738780802904E-04
2453044.500000000 = A.D. 2004-Feb-09 00:00:00.0000 TDB 
  -3.343016972794875E-04  4.494000544121197E-05  5.531973841532080E-04
   3.927169390843341E-05 -6.643051302605235E-04  7.551250383327053E-04
2453049.500000000 = A.D. 2004-Feb-14 00:00:00.0000 TDB 
  -2.995967851516300E-04  2.490465851105008E-04  2.606302476542869E-04
  -4.745737556553642E-04 -4.377907709340013E-04  1.328544215197157E-03
2453054.500000000 = A.D. 2004-Feb-19 00:00:00.0000 TDB 
  -3.146121451640369E-05  1.779388319028753E-04 -1.670184523803096E-04
  -1.680869908012579E-03  1.481562159951220E-03  1.027161076435268E-03
2453059.500000000 = A.D. 2004-Feb-24 00:00:00.0000 TDB 
   2.107857742799308E-04 -3.377990763396876E-04 -9.072073265430810E-06
  -6.987261795728186E-05  1.100456642320425E-03 -1.222674753242307E-03
2453064.500000000 = A.D. 2004-Feb-29 00:00:00.0000 TDB 
   1.733361248090216E-04 -5.448154084276945E-04  3.139823593002115E-04
   3.810443397667637E-04  2.848072563761676E-04 -9.812548254842538E-04
2453069.500000000 = A.D. 2004-Mar-05 00:00:00.0000 TDB 
   7.727672513805084E-05 -5.513872977191378E-04  5.495065024824934E-04
   4.737236208650610E-04 -1.075120731368590E-04 -6.592969596686578E-04
2453074.500000000 = A.D. 2004-Mar-10 00:00:00.0000 TDB 
  -5.947647017842451E-05 -4.453685400152053E-04  6.980283867425627E-04
   4.596434419183637E-04 -3.523906771451483E-04 -3.524653147927933E-04
2453079.500000000 = A.D. 2004-Mar-15 00:00:00.0000 TDB 
  -2.176936232156909E-04 -2.997478835736017E-04  7.593838906756372E-04
   3.927135940380236E-04 -5.266989801613320E-04 -4.761623148179883E-05
2453084.500000000 = A.D. 2004-Mar-20 00:00:00.0000 TDB 
  -3.451647586089248E-04 -1.519689574864245E-04  7.264294146159727E-04
   2.778015341678451E-04 -6.411277593956014E-04  2.847609922735788E-04
2453089.500000000 = A.D. 2004-Mar-25 00:00:00.0000 TDB 
  -3.885633377856270E-04  6.959225766699708E-06  5.867559857554832E-04
   7.307494133298367E-05 -6.724612857928632E-04  6.815255618415593E-04
2453094.500000000 = A.D. 2004-Mar-30 00:00:00.0000 TDB 
  -3.218061344405235E-04  1.814728641725205E-04  3.131553843451199E-04
  -3.612819302549620E-04 -4.948228313684796E-04  1.219290853657572E-03
2453099.500000000 = A.D. 2004-Apr-04 00:00:00.0000 TDB 
  -5.519037638437051E-05  2.127518983551249E-04 -1.120115001686317E-04
  -1.513608736327480E-03  9.646617413349573E-04  1.442692913910017E-03
2453104.500000000 = A.D. 2004-Apr-09 00:00:00.0000 TDB 
   2.387012589513097E-04 -2.451684685646089E-04 -6.481361327937607E-05
  -2.249833270860739E-04  1.336725430208411E-03 -1.204771349919619E-03
2453109.500000000 = A.D. 2004-Apr-14 00:00:00.0000 TDB 
   1.611060432003462E-04 -4.754880977140995E-04  2.741399484431594E-04
   3.503788185973181E-04  3.605614407728095E-04 -1.041347851656479E-03
2453114.500000000 = A.D. 2004-Apr-19 00:00:00.0000 TDB 
   2.859353104233866E-05 -5.435915782842161E-04  5.260787074901422E-04
   4.693595064688917E-04 -8.447345840229547E-05 -7.097003522877196E-04
2453119.500000000 = A.D. 2004-Apr-24 00:00:00.0000 TDB 
  -8.248249946388650E-05 -5.010323141790514E-04  6.825803145172718E-04
   4.693708477866193E-04 -3.394837931445691E-04 -3.991818411897675E-04
2453124.500000000 = A.D. 2004-Apr-29 00:00:00.0000 TDB 
  -1.802511162923286E-04 -3.610771786013768E-04  7.529450457025765E-04
   4.061101365694877E-04 -5.068952338018034E-04 -9.275111830289986E-05
2453129.500000000 = A.D. 2004-May-04 00:00:00.0000 TDB 
  -2.831969572219844E-04 -1.598797926851723E-04  7.360923869847819E-04
   2.840779426131956E-04 -6.193388176194846E-04  2.332885476012446E-04
2453134.500000000 = A.D. 2004-May-09 00:00:00.0000 TDB 
  -3.740732979358137E-04  4.403034172468458E-05  6.189319052519105E-04
   8.693305001955210E-05 -6.696909219341946E-04  6.155416708082186E-04
2453139.500000000 = A.D. 2004-May-14 00:00:00.0000 TDB 
  -3.774165225081839E-04  2.015441092512348E-04  3.722134147460043E-04
  -2.829217926165969E-04 -5.469321785097211E-04  1.117600382714692E-03
2453144.500000000 = A.D. 2004-May-19 00:00:00.0000 TDB 
  -1.647481359316443E-04  2.257505008197452E-04 -3.874172110240760E-05
  -1.250859302623916E-03  5.113126742222689E-04  1.593420268305048E-03
2453149.500000000 = A.D. 2004-May-24 00:00:00.0000 TDB 
   2.214191986662953E-04 -2.389755363469901E-04 -1.234137434799783E-04
  -4.116206446089663E-04  1.593057256301591E-03 -1.110681549167597E-03
2453154.500000000 = A.D. 2004-May-29 00:00:00.0000 TDB 
   2.197557555420146E-04 -4.806383808732550E-04  2.215306338881363E-04
   3.260062408712378E-04  4.621157486472375E-04 -1.097262993746944E-03
2453159.500000000 = A.D. 2004-Jun-03 00:00:00.0000 TDB 
   7.881765042897748E-05 -5.043598889673876E-04  4.926547209848626E-04
   4.536016288216404E-04 -3.717983365088778E-05 -7.642436543081228E-04
2453164.500000000 = A.D. 2004-Jun-08 00:00:00.0000 TDB 
  -9.201009022438887E-05 -4.569871478306081E-04  6.690713171582742E-04
   4.592129343472050E-04 -3.272123118088002E-04 -4.481974904537328E-04
2453169.500000000 = A.D. 2004-Jun-13 00:00:00.0000 TDB 
  -2.241944033665942E-04 -3.685035436977554E-04  7.523192210633977E-04
   4.092249778974035E-04 -5.095680764229084E-04 -1.398283833254166E-04
2453174.500000000 = A.D. 2004-Jun-18 00:00:00.0000 TDB 
  -2.997290836097211E-04 -2.201674286859295E-04  7.434140659948899E-04
   3.048624566077349E-04 -6.214522138470743E-04  1.842427782628036E-04
2453179.500000000 = A.D. 2004-Jun-23 00:00:00.0000 TDB 
  -3.346747648696443E-04 -1.211462801508128E-05  6.360496357677039E-04
   1.198408699498893E-04 -6.626324920753956E-04  5.607552599730468E-04
2453184.500000000 = A.D. 2004-Jun-28 00:00:00.0000 TDB 
  -3.286320544065634E-04  2.072807793839195E-04  4.106489086250621E-04
  -2.246140033655375E-04 -5.599242487386854E-04  1.040113117135228E-03
2453189.500000000 = A.D. 2004-Jul-03 00:00:00.0000 TDB 
  -2.008693793039449E-04  3.040599205566106E-04  2.794142773649660E-05
  -1.040087148969314E-03  2.283214914931261E-04  1.582588043756146E-03
2453194.500000000 = A.D. 2004-Jul-08 00:00:00.0000 TDB 
   1.469714920271452E-04 -1.289912199752212E-04 -1.695556454435434E-04
  -7.030065644060286E-04  1.856978054904331E-03 -8.757286316462246E-04
2453199.500000000 = A.D. 2004-Jul-13 00:00:00.0000 TDB 
   1.797063358649078E-04 -4.855335180001148E-04  1.695680409401936E-04
   2.947394245679968E-04  5.582646695916158E-04 -1.158837534596921E-03
2453204.500000000 = A.D. 2004-Jul-18 00:00:00.0000 TDB 
   9.742156084684650E-05 -5.551323833893842E-04  4.540715371787307E-04
   4.638497089415915E-04  2.911045019352069E-06 -8.220095385312818E-04
2453209.500000000 = A.D. 2004-Jul-23 00:00:00.0000 TDB 
  -2.623921772652578E-05 -4.758780943150744E-04  6.456338433933765E-04
   4.681779535514627E-04 -2.980545382188261E-04 -4.942596089119635E-04
2453214.500000000 = A.D. 2004-Jul-28 00:00:00.0000 TDB 
  -1.786316183236622E-04 -3.310006069265237E-04  7.462781068138054E-04
   4.071015808808499E-04 -4.937983992506141E-04 -1.813989787197254E-04
2453219.500000000 = A.D. 2004-Aug-02 00:00:00.0000 TDB 
  -3.199481233543460E-04 -1.775421019759770E-04  7.536065054402856E-04
   3.045756886019052E-04 -6.224044872612091E-04  1.430906414311436E-04
